[{"OBJECT_NAME":"STARLINK-3517","OBJECT_ID":"2022-016X","EPOCH":"2026-03-09T22:11:12.656256","MEAN_MOTION":15.08830912,"ECCENTRICITY":0.00013307,"INCLINATION":53.2188,"RA_OF_ASC_NODE":318.0698,"ARG_OF_PERICENTER":104.3955,"MEAN_ANOMALY":255.7185,"EPHEMERIS_TYPE":0,"CLASSIFICATION_TYPE":"U","NORAD_CAT_ID":51735,"ELEMENT_SET_NO":999,"REV_AT_EPOCH":22360,"BSTAR":-8.9011013e-5,"MEAN_MOTION_DOT":-1.704e-5,"MEAN_MOTION_DDOT":0},{"OBJECT_NAME":"UNKNOWN","OBJECT_ID":"","EPOCH":"2026-03-07T17:21:07.805664","MEAN_MOTION":15.09455608,"ECCENTRICITY":0.0009057,"INCLINATION":82.8696,"RA_OF_ASC_NODE":177.6495,"ARG_OF_PERICENTER":167.3062,"MEAN_ANOMALY":192.8398,"EPHEMERIS_TYPE":0,"CLASSIFICATION_TYPE":"U","NORAD_CAT_ID":87725,"ELEMENT_SET_NO":999,"REV_AT_EPOCH":64668,"BSTAR":0.0060116,"MEAN_MOTION_DOT":0.00097492,"MEAN_MOTION_DDOT":0}]
